ORBCOMM FM103           
1 40091U 14040F   24127.72406238  .00000945  00000+0  24754-3 0  9993
2 40091  47.0045 135.0407 0002359 236.9939 123.0719 14.56546810504817
ORBCOMM FM114           
1 41179U 15081A   24127.89489435  .00001202  00000+0  30461-3 0  9994
2 41179  47.0038  43.5187 0002017 283.3146  76.7514 14.56573246445209
ORBCOMM FM119           
1 41180U 15081B   24127.79633970  .00001049  00000+0  27075-3 0  9996
2 41180  47.0010 313.1733 0001440 322.0165  38.0618 14.56536035446443
ORBCOMM FM105           
1 41181U 15081C   24127.74039777  .00000598  00000+0  21751-3 0  9990
2 41181  47.0011 280.0075 0002283 287.0699  72.9931 14.44363489441970
ORBCOMM FM110           
1 41182U 15081D   24127.87214237  .00001338  00000+0  33483-3 0  9999
2 41182  47.0028  43.0347 0001319  96.5902 263.5133 14.56565036445079
ORBCOMM FM118           
1 41183U 15081E   24127.84948808  .00001349  00000+0  33733-3 0  9995
2 41183  47.0050  43.4468 0001383  92.5315 267.5728 14.56553148445174
ORBCOMM FM112           
1 41184U 15081F   24127.77371286  .00001385  00000+0  34508-3 0  9999
2 41184  46.9992 312.4983 0001297 297.8229  62.2524 14.56577423446387
ORBCOMM FM113           
1 41185U 15081G   24127.81947277  .00001296  00000+0  32552-3 0  9992
2 41185  47.0011 312.5486 0000853 308.4427  51.6381 14.56571156446376
